NORAD_CAT_ID,OBJECT_NAME,OBJECT_TYPE,EPOCH,MEAN_MOTION,ECCENTRICITY,INCLINATION,RA_OF_ASC_NODE,ARG_OF_PERICENTER,MEAN_ANOMALY,BSTAR,MEAN_MOTION_DOT,MEAN_MOTION_DDOT,TLE_LINE0,TLE_LINE1,TLE_LINE2,SEMIMAJOR_AXIS,PERIOD,APOGEE,PERIGEE,DECAYED
51720.0,STARLINK-3526,PAYLOAD,2022-09-02 16:00:00,15.08805307,0.0001826,53.2166,333.3181,49.21,1.7757,0.0028601,0.00045481,0.0,0 STARLINK-3526,1 51720U 22016G   22245.66667824  .00045481  00000-0  28601-2 0  9997,2 51720  53.2166 333.3181 0001826  49.2100   1.7757 15.08805307 30642,6917.986,95.44,541.115,538.5880000000002,0.0
51720.0,STARLINK-3526,PAYLOAD,2022-09-02 22:00:01,15.08847509,0.0001744,53.2165,332.1945,50.5106,279.2115,-0.0020166,-0.00032246,0.0,0 STARLINK-3526,1 51720U 22016G   22245.91668981 -.00032246  00000-0 -20166-2 0  9995,2 51720  53.2165 332.1945 0001744  50.5106 279.2115 15.08847509  1307,6917.857,95.437,540.929,538.516,0.0
51720.0,STARLINK-3526,PAYLOAD,2022-09-03 08:00:01,15.0885604,0.0001708,53.2168,330.3237,54.7199,19.4247,-0.00094801,-0.00015351,0.0,0 STARLINK-3526,1 51720U 22016G   22246.33334491 -.00015351  00000-0 -94801-3 0  9994,2 51720  53.2168 330.3237 0001708  54.7199  19.4247 15.08856040 30742,6917.831,95.437,540.878,538.515,0.0
51720.0,STARLINK-3526,PAYLOAD,2022-09-03 14:00:01,15.08843125,0.0001841,53.2168,329.2026,49.4388,303.4157,0.00060822,9.406e-05,0.0,0 STARLINK-3526,1 51720U 22016G   22246.58334491  .00009406  00000-0  60822-3 0  9999,2 51720  53.2168 329.2026 0001841  49.4388 303.4157 15.08843125  1300,6917.871,95.437,541.009,538.462,0.0
51720.0,STARLINK-3526,PAYLOAD,2022-09-03 22:00:00,15.08859924,0.000169,53.2167,327.705,49.2102,315.2479,-0.0031317,-0.00049812,0.0,0 STARLINK-3526,1 51720U 22016G   22246.91667824 -.00049812  00000-0 -31317-2 0  9998,2 51720  53.2167 327.7050 0001690  49.2102 315.2479 15.08859924  1305,6917.819,95.436,540.854,538.515,0.0
51720.0,STARLINK-3526,PAYLOAD,2022-09-04 14:00:01,15.08807224,0.0001664,53.2169,324.7134,43.5943,344.1097,0.0017021,0.0002688,0.0,0 STARLINK-3526,1 51720U 22016G   22247.58335648  .00026880  00000-0  17021-2 0  9992,2 51720  53.2169 324.7134 0001664  43.5943 344.1097 15.08807224 30932,6917.981,95.44,540.997,538.694,0.0
51720.0,STARLINK-3526,PAYLOAD,2022-09-04 20:00:01,15.0885002,0.0001598,53.2165,323.5903,42.8041,263.5145,-0.001062,-0.00017155,0.0,0 STARLINK-3526,1 51720U 22016G   22247.83334491 -.00017155  00000-0 -10620-2 0  9990,2 51720  53.2165 323.5903 0001598  42.8041 263.5145 15.08850020  1305,6917.85,95.437,540.82,538.609,0.0
51720.0,STARLINK-3526,PAYLOAD,2022-09-05 14:00:01,15.0886419,0.0001714,53.2166,320.2243,45.3234,17.1137,-0.0014385,-0.00023124,0.0,0 STARLINK-3526,1 51720U 22016G   22248.58334491 -.00023124  00000-0 -14385-2 0  9998,2 51720  53.2166 320.2243 0001714  45.3234  17.1137 15.08864190  1306,6917.806,95.436,540.857,538.486,0.0
51720.0,STARLINK-3526,PAYLOAD,2022-09-05 22:00:00,15.08841932,0.0001706,53.2164,318.7265,51.6111,22.4463,-0.0033891999999999,-0.00053828,0.0,0 STARLINK-3526,1 51720U 22016G   22248.91667824 -.00053828  00000-0 -33892-2 0  9992,2 51720  53.2164 318.7265 0001706  51.6111  22.4463 15.08841932 31139,6917.874,95.437,540.92,538.559,0.0
51720.0,STARLINK-3526,PAYLOAD,2022-09-06 12:00:00,15.08815657,0.0001878,53.2161,316.1093,51.7084,312.5931,0.00031447,4.717e-05,0.0,0 STARLINK-3526,1 51720U 22016G   22249.50001157  .00004717  00000-0  31447-3 0  9995,2 51720  53.2161 316.1093 0001878  51.7084 312.5931 15.08815657 31214,6917.955,95.439,541.119,538.521,0.0
51720.0,STARLINK-3526,PAYLOAD,2022-09-06 14:00:01,15.08801434,0.0001873,53.2161,315.7355,50.4471,46.7507,0.0025265,0.00040108,0.0,0 STARLINK-3526,1 51720U 22016G   22249.58334491  .00040108  00000-0  25265-2 0  9997,2 51720  53.2161 315.7355 0001873  50.4471  46.7507 15.08801434  1301,6917.998000000001,95.44,541.159,538.568,0.0
51720.0,STARLINK-3526,PAYLOAD,2022-09-06 22:00:00,15.08828743,0.0001754999999999,53.2159,314.2377,53.8179,54.9461,-0.00020064,-3.479e-05,0.0,0 STARLINK-3526,1 51720U 22016G   22249.91667824 -.00003479  00000-0 -20064-3 0  9998,2 51720  53.2159 314.2377 0001755  53.8179  54.9461 15.08828743  1309,6917.915,95.438,540.994,538.566,0.0
51720.0,STARLINK-3526,PAYLOAD,2022-09-07 14:00:01,15.08831118,0.0001873,53.2157,311.2466,48.8341,83.1075,6.0961e-05,6.82e-06,0.0,0 STARLINK-3526,1 51720U 22016G   22250.58334491  .00000682  00000-0  60961-4 0  9996,2 51720  53.2157 311.2466 0001873  48.8341  83.1075 15.08831118 31385,6917.908,95.438,541.068,538.477,0.0
51720.0,STARLINK-3526,PAYLOAD,2022-09-07 22:00:00,15.088186,0.0001696,53.2156,309.7486,50.7141,92.8181,0.00021695,3.164e-05,0.0,0 STARLINK-3526,1 51720U 22016G   22250.91667824  .00003164  00000-0  21695-3 0  9990,2 51720  53.2156 309.7486 0001696  50.7141  92.8181 15.08818600  1306,6917.946,95.439,540.984,538.638,0.0
51720.0,STARLINK-3526,PAYLOAD,2022-09-08 14:00:01,15.08811642,0.0001909,53.2154,306.7575,46.632,120.0656,0.0033260999999999,0.00053004,0.0,0 STARLINK-3526,1 51720U 22016G   22251.58334491  .00053004  00000-0  33261-2 0  9994,2 51720  53.2154 306.7575 0001909  46.6320 120.0656 15.08811642  1300,6917.967,95.439,541.153,538.511,0.0
51720.0,STARLINK-3526,PAYLOAD,2022-09-09 00:00:02,15.088340300000002,0.0001794,53.2153,304.885,52.3945,218.8602,0.0012819,0.00020169,0.0,0 STARLINK-3526,1 51720U 22016G   22252.00002315  .00020169  00000-0  12819-2 0  9991,2 51720  53.2153 304.8850 0001794  52.3945 218.8602 15.08834030 31590,6917.899,95.438,541.005,538.523,0.0
51720.0,STARLINK-3526,PAYLOAD,2022-09-09 14:00:01,15.08809992,0.0002093,53.2153,302.2683,48.688,152.8014,0.003563,0.00056829,0.0,0 STARLINK-3526,1 51720U 22016G   22252.58334491  .00056829  00000-0  35630-2 0  9995,2 51720  53.2153 302.2683 0002093  48.6880 152.8014 15.08809992  1304,6917.972,95.439,541.285,538.389,0.0
51720.0,STARLINK-3526,PAYLOAD,2022-09-09 22:00:00,15.08833466,0.0001937,53.2154,300.7701,52.3991,160.6782,0.0012454,0.00019585,0.0,0 STARLINK-3526,1 51720U 22016G   22252.91667824  .00019585  00000-0  12454-2 0  9998,2 51720  53.2154 300.7701 0001937  52.3991 160.6782 15.08833466  1302,6917.9,95.438,541.105,538.425,0.0
51720.0,STARLINK-3526,PAYLOAD,2022-09-10 14:00:01,15.08806595,0.0002056,53.2152,297.7789,46.6387,189.6411,0.0033469,0.00053333,0.0,0 STARLINK-3526,1 51720U 22016G   22253.58334491  .00053333  00000-0  33469-2 0  9991,2 51720  53.2152 297.7789 0002056  46.6387 189.6411 15.08806595 31833,6917.982,95.44,541.27,538.425,0.0
51720.0,STARLINK-3526,PAYLOAD,2022-09-10 22:00:00,15.08835725,0.0001851999999999,53.2154,296.2806,50.2922,197.5729,-0.0010986,-0.00017728,0.0,0 STARLINK-3526,1 51720U 22016G   22253.91667824 -.00017728  00000-0 -10986-2 0  9996,2 51720  53.2154 296.2806 0001852  50.2922 197.5729 15.08835725  1304,6917.893,95.438,541.04,538.477,0.0
51720.0,STARLINK-3526,PAYLOAD,2022-09-11 06:00:00,15.08833375,0.0001871,53.2158,294.7848,50.6926,208.7531,-0.0010092,-0.00016311,0.0,0 STARLINK-3526,1 51720U 22016G   22254.25001157 -.00016311  00000-0 -10092-2 0  9990,2 51720  53.2158 294.7848 0001871  50.6926 208.7531 15.08833375 31933,6917.901,95.438,541.06,538.471,0.0
51720.0,STARLINK-3526,PAYLOAD,2022-09-11 14:00:01,15.0880804,0.0001996999999999,53.215,293.2893,45.1118,225.9196,0.0030254,0.00048149,0.0,0 STARLINK-3526,1 51720U 22016G   22254.58334491  .00048149  00000-0  30254-2 0  9990,2 51720  53.2150 293.2893 0001997  45.1118 225.9196 15.08808040  1307,6917.978,95.44,541.225,538.462,0.0
51720.0,STARLINK-3526,PAYLOAD,2022-09-11 22:00:00,15.08816814,0.0001815,53.2151,291.791,50.3022,232.3133,0.0023196,0.00036798,0.0,0 STARLINK-3526,1 51720U 22016G   22254.91667824  .00036798  00000-0  23196-2 0  9990,2 51720  53.2151 291.7910 0001815  50.3022 232.3133 15.08816814 32037,6917.951,95.439,541.072,538.561,0.0
51720.0,STARLINK-3526,PAYLOAD,2022-09-12 14:00:01,15.08842224,0.0001955999999999,53.2147,288.7996,45.4451,260.3568,0.00097853,0.00015321,0.0,0 STARLINK-3526,1 51720U 22016G   22255.58334491  .00015321  00000-0  97853-3 0  9996,2 51720  53.2147 288.7996 0001956  45.4451 260.3568 15.08842224 32137,6917.874,95.437,541.092,538.385,0.0
51720.0,STARLINK-3526,PAYLOAD,2022-09-12 22:00:00,15.08818691,0.0001746,53.2148,287.3013,50.4455,266.9766,0.0021051999999999,0.00033356,0.0,0 STARLINK-3526,1 51720U 22016G   22255.91667824  .00033356  00000-0  21052-2 0  9997,2 51720  53.2148 287.3013 0001746  50.4455 266.9766 15.08818691  1308,6917.946,95.439,541.018,538.6030000000002,0.0
51720.0,STARLINK-3526,PAYLOAD,2022-09-13 08:00:01,15.08789702,0.0002032,53.2171,285.4328,46.9658,14.9346,0.0044426,0.00071032,0.0,0 STARLINK-3526,1 51720U 22016G   22256.33334491  .00071032  00000-0  44426-2 0  9998,2 51720  53.2171 285.4328 0002032  46.9658  14.9346 15.08789702 32259,6918.034000000002,95.441,541.305,538.493,0.0
51720.0,STARLINK-3526,PAYLOAD,2022-09-13 14:00:01,15.08836868,0.0002154,53.2172,284.3113,44.1028,296.4654,5.4669e-05,5.82e-06,0.0,0 STARLINK-3526,1 51720U 22016G   22256.58334491  .00000582  00000-0  54669-4 0  9999,2 51720  53.2172 284.3113 0002154  44.1028 296.4654 15.08836868  1303,6917.89,95.438,541.245,538.265,0.0
51720.0,STARLINK-3526,PAYLOAD,2022-09-13 22:00:00,15.08828172,0.0001747,53.2146,282.8118,51.8662,300.3286,0.0019569,0.00030983,0.0,0 STARLINK-3526,1 51720U 22016G   22256.91667824  .00030983  00000-0  19569-2 0  9991,2 51720  53.2146 282.8118 0001747  51.8662 300.3286 15.08828172  1303,6917.917,95.438,540.99,538.573,0.0
51720.0,STARLINK-3526,PAYLOAD,2022-09-14 06:00:00,15.08857617,0.0001913,53.2166,281.317,44.3358,319.3836,0.00031488,4.729e-05,0.0,0 STARLINK-3526,1 51720U 22016G   22257.25001157  .00004729  00000-0  31488-3 0  9994,2 51720  53.2166 281.3170 0001913  44.3358 319.3836 15.08857617 32380,6917.8269999999975,95.436,541.015,538.368,0.0
